{"type": "FeatureCollection", "features": [ {"type": "Feature", "properties": {"norad_id": 30829, "name": "FENGYUN 1C DEB", "group": "fengyun-1c-debris", "lat": 16.896016444696414, "lon": -19.970417524849772, "alt_km": 848.6606694877446, "timestamp": "2025-12-16T03:53:27.334939+00:00", "meta": {"OBJECT_NAME": "FENGYUN 1C DEB", "OBJECT_ID": "1999-025AVP", "EPOCH": "2025-12-14T22:49:50.292192", "MEAN_MOTION": 14.08657491, "ECCENTRICITY": 0.0035416, "INCLINATION": 98.7772, "RA_OF_ASC_NODE": 341.5409, "ARG_OF_PERICENTER": 328.3954, "MEAN_ANOMALY": 31.509, "EPHEMERIS_TYPE": 0, "CLASSIFICATION_TYPE": "U", "NORAD_CAT_ID": 30829, "ELEMENT_SET_NO": 999, "REV_AT_EPOCH": 96464, "BSTAR": 0.00041113883, "MEAN_MOTION_DOT": 6.68e-06, "MEAN_MOTION_DDOT": 0}, "tle": {"line1": "1 30829U 99025AVP 25348.95127653  .00000668  00000+0  41114-3 0  9990", "line2": "2 30829  98.7772 341.5409 0035416 328.3954  31.5090 14.08657491964645"}}, "geometry": {"type": "Point", "coordinates": [-19.970417524849772, 16.896016444696414]}}, {"type": "Feature", "properties": {"norad_id": 30830, "name": "FENGYUN 1C DEB", "group": "fengyun-1c-debris", "lat": -80.22761862920669, "lon": 41.60563007255228, "alt_km": 861.1161253395621, "timestamp": "2025-12-16T03:53:27.334949+00:00", "meta": {"OBJECT_NAME": "FENGYUN 1C DEB", "OBJECT_ID": "1999-025AVQ", "EPOCH": "2025-12-15T06:16:11.837568", "MEAN_MOTION": 14.1223183, "ECCENTRICITY": 0.00307868, "INCLINATION": 98.7293, "RA_OF_ASC_NODE": 337.5957, "ARG_OF_PERICENTER": 181.5112, "MEAN_ANOMALY": 195.032, "EPHEMERIS_TYPE": 0, "CLASSIFICATION_TYPE": "U", "NORAD_CAT_ID": 30830, "ELEMENT_SET_NO": 999, "REV_AT_EPOCH": 96635, "BSTAR": 0.00029742517, "MEAN_MOTION_DOT": 5.06e-06, "MEAN_MOTION_DDOT": 0}, "tle": {"line1": "1 30830U 99025AVQ 25349.26124812  .00000506  00000+0  29743-3 0  9996", "line2": "2 30830  98.7293 337.5957 0030786 181.5112 195.0320 14.12231830966350"}}, "geometry": {"type": "Point", "coordinates": [41.60563007255228, -80.22761862920669]}}, {"type": "Feature", "properties": {"norad_id": 30831, "name": "FENGYUN 1C DEB", "group": "fengyun-1c-debris", "lat": -11.164150607492726, "lon": 145.03322401561965, "alt_km": 759.8848156728027, "timestamp": "2025-12-16T03:53:27.334960+00:00", "meta": {"OBJECT_NAME": "FENGYUN 1C DEB", "OBJECT_ID": "1999-025AVR", "EPOCH": "2025-12-15T06:07:46.543584", "MEAN_MOTION": 14.31092853, "ECCENTRICITY": 0.0055447, "INCLINATION": 99.3281, "RA_OF_ASC_NODE": 142.2017, "ARG_OF_PERICENTER": 26.9036, "MEAN_ANOMALY": 333.5001, "EPHEMERIS_TYPE": 0, "CLASSIFICATION_TYPE": "U", "NORAD_CAT_ID": 30831, "ELEMENT_SET_NO": 999, "REV_AT_EPOCH": 65286, "BSTAR": 0.00042713342, "MEAN_MOTION_DOT": 1.095e-05, "MEAN_MOTION_DDOT": 0}, "tle": {"line1": "1 30831U 99025AVR 25349.25539981  .00001095  00000+0  42713-3 0  9999", "line2": "2 30831  99.3281 142.2017 0055447  26.9036 333.5001 14.31092853652865"}}, "geometry": {"type": "Point", "coordinates": [145.03322401561965, -11.164150607492726]}}, {"type": "Feature", "properties": {"norad_id": 30833, "name": "FENGYUN 1C DEB", "group": "fengyun-1c-debris", "lat": -43.57378135482858, "lon": 146.17507563427958, "alt_km": 828.4587878367911, "timestamp": "2025-12-16T03:53:27.334975+00:00", "meta": {"OBJECT_NAME": "FENGYUN 1C DEB", "OBJECT_ID": "1999-025AVT", "EPOCH": "2025-12-13T03:43:43.154976", "MEAN_MOTION": 14.26759277, "ECCENTRICITY": 0.00330206, "INCLINATION": 99.8438, "RA_OF_ASC_NODE": 133.2888, "ARG_OF_PERICENTER": 179.4189, "MEAN_ANOMALY": 180.7031, "EPHEMERIS_TYPE": 0, "CLASSIFICATION_TYPE": "U", "NORAD_CAT_ID": 30833, "ELEMENT_SET_NO": 999, "REV_AT_EPOCH": 64417, "BSTAR": 0.0009108957, "MEAN_MOTION_DOT": 2.165e-05, "MEAN_MOTION_DDOT": 0}, "tle": {"line1": "1 30833U 99025AVT 25347.15536059  .00002165  00000+0  91090-3 0  9992", "line2": "2 30833  99.8438 133.2888 0033020 179.4189 180.7031 14.26759277644172"}}, "geometry": {"type": "Point", "coordinates": [146.17507563427958, -43.57378135482858]}}, {"type": "Feature", "properties": {"norad_id": 30836, "name": "FENGYUN 1C DEB", "group": "fengyun-1c-debris", "lat": -74.3626745665833, "lon": 56.09988863722479, "alt_km": 847.6090289256772, "timestamp": "2025-12-16T03:53:27.334988+00:00", "meta": {"OBJECT_NAME": "FENGYUN 1C DEB", "OBJECT_ID": "1999-025AVW", "EPOCH": "2025-12-14T21:38:29.630976", "MEAN_MOTION": 14.11936908, "ECCENTRICITY": 0.00257682, "INCLINATION": 98.745, "RA_OF_ASC_NODE": 21.5105, "ARG_OF_PERICENTER": 238.327, "MEAN_ANOMALY": 121.5389, "EPHEMERIS_TYPE": 0, "CLASSIFICATION_TYPE": "U", "NORAD_CAT_ID": 30836, "ELEMENT_SET_NO": 999, "REV_AT_EPOCH": 62034, "BSTAR": 0.00037253122, "MEAN_MOTION_DOT": 6.4e-06, "MEAN_MOTION_DDOT": 0}, "tle": {"line1": "1 30836U 99025AVW 25348.90173184  .00000640  00000+0  37253-3 0  9992", "line2": "2 30836  98.7450  21.5105 0025768 238.3270 121.5389 14.11936908620348"}}, "geometry": {"type": "Point", "coordinates": [56.09988863722479, -74.3626745665833]}}, {"type": "Feature", "properties": {"norad_id": 30837, "name": "FENGYUN 1C DEB", "group": "fengyun-1c-debris", "lat": -2.5668518604898773, "lon": -23.30532542643362, "alt_km": 861.2185802386675, "timestamp": "2025-12-16T03:53:27.334999+00:00", "meta": {"OBJECT_NAME": "FENGYUN 1C DEB", "OBJECT_ID": "1999-025AVX", "EPOCH": "2025-12-14T21:29:00.159072", "MEAN_MOTION": 14.14524169, "ECCENTRICITY": 0.00330331, "INCLINATION": 98.6788, "RA_OF_ASC_NODE": 335.0711, "ARG_OF_PERICENTER": 127.3828, "MEAN_ANOMALY": 262.2283, "EPHEMERIS_TYPE": 0, "CLASSIFICATION_TYPE": "U", "NORAD_CAT_ID": 30837, "ELEMENT_SET_NO": 999, "REV_AT_EPOCH": 96849, "BSTAR": 0.00034018668, "MEAN_MOTION_DOT": 6.14e-06, "MEAN_MOTION_DDOT": 0}, "tle": {"line1": "1 30837U 99025AVX 25348.89514073  .00000614  00000+0  34019-3 0  9995", "line2": "2 30837  98.6788 335.0711 0033033 127.3828 262.2283 14.14524169968490"}}, "geometry": {"type": "Point", "coordinates": [-23.30532542643362, -2.5668518604898773]}}, {"type": "Feature", "properties": {"norad_id": 30838, "name": "FENGYUN 1C DEB", "group": "fengyun-1c-debris", "lat": 51.569098519966076, "lon": -107.3103304865171, "alt_km": 730.0926393185591, "timestamp": "2025-12-16T03:53:27.335009+00:00", "meta": {"OBJECT_NAME": "FENGYUN 1C DEB", "OBJECT_ID": "1999-025AVY", "EPOCH": "2025-12-14T23:27:04.950432", "MEAN_MOTION": 14.47782548, "ECCENTRICITY": 0.0034189, "INCLINATION": 99.0424, "RA_OF_ASC_NODE": 263.0012, "ARG_OF_PERICENTER": 151.1234, "MEAN_ANOMALY": 209.1858, "EPHEMERIS_TYPE": 0, "CLASSIFICATION_TYPE": "U", "NORAD_CAT_ID": 30838, "ELEMENT_SET_NO": 999, "REV_AT_EPOCH": 97346, "BSTAR": 0.0015232839, "MEAN_MOTION_DOT": 5.626e-05, "MEAN_MOTION_DDOT": 0}, "tle": {"line1": "1 30838U 99025AVY 25348.97714063  .00005626  00000+0  15233-2 0  9990", "line2": "2 30838  99.0424 263.0012 0034189 151.1234 209.1858 14.47782548973460"}}, "geometry": {"type": "Point", "coordinates": [-107.3103304865171, 51.569098519966076]}}, {"type": "Feature", "properties": {"norad_id": 30840, "name": "FENGYUN 1C DEB", "group": "fengyun-1c-debris", "lat": -18.754342864797348, "lon": 4.1533320416176105, "alt_km": 548.5568138185617, "timestamp": "2025-12-16T03:53:27.335019+00:00", "meta": {"OBJECT_NAME": "FENGYUN 1C DEB", "OBJECT_ID": "1999-025AWA", "EPOCH": "2025-12-13T23:22:54.736896", "MEAN_MOTION": 14.61122167, "ECCENTRICITY": 0.02175918, "INCLINATION": 98.0241, "RA_OF_ASC_NODE": 359.2848, "ARG_OF_PERICENTER": 6.7524, "MEAN_ANOMALY": 353.6526, "EPHEMERIS_TYPE": 0, "CLASSIFICATION_TYPE": "U", "NORAD_CAT_ID": 30840, "ELEMENT_SET_NO": 999, "REV_AT_EPOCH": 73149, "BSTAR": 0.00089163611, "MEAN_MOTION_DOT": 6.09e-05, "MEAN_MOTION_DDOT": 0}, "tle": {"line1": "1 30840U 99025AWA 25347.97424464  .00006090  00000+0  89164-3 0  9996", "line2": "2 30840  98.0241 359.2848 0217591   6.7524 353.6526 14.61122167731494"}}, "geometry": {"type": "Point", "coordinates": [4.1533320416176105, -18.754342864797348]}}, {"type": "Feature", "properties": {"norad_id": 30843, "name": "FENGYUN 1C DEB", "group": "fengyun-1c-debris", "lat": 60.4532331783086, "lon": 46.03134277893899, "alt_km": 639.457382641267, "timestamp": "2025-12-16T03:53:27.335029+00:00", "meta": {"OBJECT_NAME": "FENGYUN 1C DEB", "OBJECT_ID": "1999-025AWD", "EPOCH": "2025-12-14T00:21:24.845760", "MEAN_MOTION": 14.52478463, "ECCENTRICITY": 0.01489202, "INCLINATION": 98.8425, "RA_OF_ASC_NODE": 59.7088, "ARG_OF_PERICENTER": 115.7809, "MEAN_ANOMALY": 245.8837, "EPHEMERIS_TYPE": 0, "CLASSIFICATION_TYPE": "U", "NORAD_CAT_ID": 30843, "ELEMENT_SET_NO": 999, "REV_AT_EPOCH": 99343, "BSTAR": 0.00024531288, "MEAN_MOTION_DOT": 1.101e-05, "MEAN_MOTION_DDOT": 0}, "tle": {"line1": "1 30843U 99025AWD 25348.01487090  .00001101  00000+0  24531-3 0  9994", "line2": "2 30843  98.8425  59.7088 0148920 115.7809 245.8837 14.52478463993437"}}, "geometry": {"type": "Point", "coordinates": [46.03134277893899, 60.4532331783086]}}, {"type": "Feature", "properties": {"norad_id": 30845, "name": "FENGYUN 1C DEB", "group": "fengyun-1c-debris", "lat": 41.8084275545149, "lon": 177.9127447180117, "alt_km": 1047.9296295739887, "timestamp": "2025-12-16T03:53:27.335039+00:00", "meta": {"OBJECT_NAME": "FENGYUN 1C DEB", "OBJECT_ID": "1999-025AWF", "EPOCH": "2025-12-15T06:22:59.763072", "MEAN_MOTION": 13.76859994, "ECCENTRICITY": 0.01920382, "INCLINATION": 98.3793, "RA_OF_ASC_NODE": 349.5477, "ARG_OF_PERICENTER": 263.621, "MEAN_ANOMALY": 116.2524, "EPHEMERIS_TYPE": 0, "CLASSIFICATION_TYPE": "U", "NORAD_CAT_ID": 30845, "ELEMENT_SET_NO": 999, "REV_AT_EPOCH": 94278, "BSTAR": 0.00037762019, "MEAN_MOTION_DOT": 3.88e-06, "MEAN_MOTION_DDOT": 0}, "tle": {"line1": "1 30845U 99025AWF 25349.26596948  .00000388  00000+0  37762-3 0  9993", "line2": "2 30845  98.3793 349.5477 0192038 263.6210 116.2524 13.76859994942785"}}, "geometry": {"type": "Point", "coordinates": [177.9127447180117, 41.8084275545149]}}]}